{"type": "FeatureCollection", "features": [ {"type": "Feature", "properties": {"norad_id": 66625, "name": "STARLINK-35929", "group": "last-30-days", "lat": 5.009844212880388, "lon": -67.22045082997793, "alt_km": 447.31040955520166, "timestamp": "2025-12-27T15:27:09.828807+00:00", "meta": {"OBJECT_NAME": "STARLINK-35929", "OBJECT_ID": "2025-271J", "EPOCH": "2025-12-27T00:40:51.715776", "MEAN_MOTION": 15.39649821, "ECCENTRICITY": 9.605e-05, "INCLINATION": 53.1597, "RA_OF_ASC_NODE": 119.4492, "ARG_OF_PERICENTER": 61.9071, "MEAN_ANOMALY": 298.203, "EPHEMERIS_TYPE": 0, "CLASSIFICATION_TYPE": "U", "NORAD_CAT_ID": 66625, "ELEMENT_SET_NO": 999, "REV_AT_EPOCH": 641, "BSTAR": 0.0018997047, "MEAN_MOTION_DOT": 0.00076427, "MEAN_MOTION_DDOT": 0}, "tle": {"line1": "1 66625U 25271J   25361.02837634  .00076427  00000+0  18997-2 0  9993", "line2": "2 66625  53.1597 119.4492 0000960  61.9071 298.2030 15.39649821  6419"}}, "geometry": {"type": "Point", "coordinates": [-67.22045082997793, 5.009844212880388]}}, {"type": "Feature", "properties": {"norad_id": 66626, "name": "STARLINK-35902", "group": "last-30-days", "lat": 52.672096610138034, "lon": -142.7720241805944, "alt_km": 438.7538324703919, "timestamp": "2025-12-27T15:27:09.828817+00:00", "meta": {"OBJECT_NAME": "STARLINK-35902", "OBJECT_ID": "2025-271K", "EPOCH": "2025-12-27T01:00:55.456992", "MEAN_MOTION": 15.39642706, "ECCENTRICITY": 0.00015851, "INCLINATION": 53.1595, "RA_OF_ASC_NODE": 119.5362, "ARG_OF_PERICENTER": 84.6122, "MEAN_ANOMALY": 275.5063, "EPHEMERIS_TYPE": 0, "CLASSIFICATION_TYPE": "U", "NORAD_CAT_ID": 66626, "ELEMENT_SET_NO": 999, "REV_AT_EPOCH": 641, "BSTAR": 0.0019071736, "MEAN_MOTION_DOT": 0.00076715, "MEAN_MOTION_DDOT": 0}, "tle": {"line1": "1 66626U 25271K   25361.04230853  .00076715  00000+0  19072-2 0  9991", "line2": "2 66626  53.1595 119.5362 0001585  84.6122 275.5063 15.39642706  6417"}}, "geometry": {"type": "Point", "coordinates": [-142.7720241805944, 52.672096610138034]}}, {"type": "Feature", "properties": {"norad_id": 66627, "name": "STARLINK-35904", "group": "last-30-days", "lat": 25.133930443036032, "lon": -83.99412089856732, "alt_km": 443.672817806334, "timestamp": "2025-12-27T15:27:09.828827+00:00", "meta": {"OBJECT_NAME": "STARLINK-35904", "OBJECT_ID": "2025-271L", "EPOCH": "2025-12-27T00:47:32.907264", "MEAN_MOTION": 15.3965311, "ECCENTRICITY": 0.00012006, "INCLINATION": 53.1602, "RA_OF_ASC_NODE": 119.4785, "ARG_OF_PERICENTER": 88.2066, "MEAN_ANOMALY": 271.9076, "EPHEMERIS_TYPE": 0, "CLASSIFICATION_TYPE": "U", "NORAD_CAT_ID": 66627, "ELEMENT_SET_NO": 999, "REV_AT_EPOCH": 637, "BSTAR": 0.0011925382, "MEAN_MOTION_DOT": 0.00047652, "MEAN_MOTION_DDOT": 0}, "tle": {"line1": "1 66627U 25271L   25361.03301976  .00047652  00000+0  11925-2 0  9993", "line2": "2 66627  53.1602 119.4785 0001200  88.2066 271.9076 15.39653110  6376"}}, "geometry": {"type": "Point", "coordinates": [-83.99412089856732, 25.133930443036032]}}, {"type": "Feature", "properties": {"norad_id": 66628, "name": "STARLINK-35862", "group": "last-30-days", "lat": -52.35655677365875, "lon": 39.930556640550485, "alt_km": 452.95544238213824, "timestamp": "2025-12-27T15:27:09.828837+00:00", "meta": {"OBJECT_NAME": "STARLINK-35862", "OBJECT_ID": "2025-271M", "EPOCH": "2025-12-27T00:00:02.999808", "MEAN_MOTION": 15.39598376, "ECCENTRICITY": 0.00013028, "INCLINATION": 53.1601, "RA_OF_ASC_NODE": 119.3739, "ARG_OF_PERICENTER": 86.0407, "MEAN_ANOMALY": 221.7503, "EPHEMERIS_TYPE": 0, "CLASSIFICATION_TYPE": "U", "NORAD_CAT_ID": 66628, "ELEMENT_SET_NO": 999, "REV_AT_EPOCH": 609, "BSTAR": 0.0001471086, "MEAN_MOTION_DOT": 5.485e-05, "MEAN_MOTION_DDOT": 0}, "tle": {"line1": "1 66628U 25271M   25361.00003472  .00005485  00000+0  14711-3 0  9996", "line2": "2 66628  53.1601 119.3739 0001302  86.0407 221.7503 15.39598376  6091"}}, "geometry": {"type": "Point", "coordinates": [39.930556640550485, -52.35655677365875]}}, {"type": "Feature", "properties": {"norad_id": 66629, "name": "STARLINK-35956", "group": "last-30-days", "lat": -51.164730808891655, "lon": 47.05704459085875, "alt_km": 400.6419494587026, "timestamp": "2025-12-27T15:27:09.828847+00:00", "meta": {"OBJECT_NAME": "STARLINK-35956", "OBJECT_ID": "2025-271N", "EPOCH": "2025-12-27T05:00:05.360832", "MEAN_MOTION": 15.57385878, "ECCENTRICITY": 0.00102439, "INCLINATION": 53.1713, "RA_OF_ASC_NODE": 117.7428, "ARG_OF_PERICENTER": 28.3135, "MEAN_ANOMALY": 331.8433, "EPHEMERIS_TYPE": 0, "CLASSIFICATION_TYPE": "U", "NORAD_CAT_ID": 66629, "ELEMENT_SET_NO": 999, "REV_AT_EPOCH": 131, "BSTAR": 0.0064599438, "MEAN_MOTION_DOT": 0.00513997, "MEAN_MOTION_DDOT": 0}, "tle": {"line1": "1 66629U 25271N   25361.20839538  .00513997  00000+0  64599-2 0  9999", "line2": "2 66629  53.1713 117.7428 0010243  28.3135 331.8433 15.57385878  1310"}}, "geometry": {"type": "Point", "coordinates": [47.05704459085875, -51.164730808891655]}}, {"type": "Feature", "properties": {"norad_id": 66630, "name": "STARLINK-35949", "group": "last-30-days", "lat": -42.65121863968105, "lon": 72.60954071637177, "alt_km": 451.9909291875765, "timestamp": "2025-12-27T15:27:09.828860+00:00", "meta": {"OBJECT_NAME": "STARLINK-35949", "OBJECT_ID": "2025-271P", "EPOCH": "2025-12-27T06:00:02.000160", "MEAN_MOTION": 15.39549912, "ECCENTRICITY": 5.662e-05, "INCLINATION": 53.1603, "RA_OF_ASC_NODE": 118.1457, "ARG_OF_PERICENTER": 74.3603, "MEAN_ANOMALY": 203.7416, "EPHEMERIS_TYPE": 0, "CLASSIFICATION_TYPE": "U", "NORAD_CAT_ID": 66630, "ELEMENT_SET_NO": 999, "REV_AT_EPOCH": 608, "BSTAR": 0.002225795, "MEAN_MOTION_DOT": 0.00089474, "MEAN_MOTION_DDOT": 0}, "tle": {"line1": "1 66630U 25271P   25361.25002315  .00089474  00000+0  22258-2 0  9995", "line2": "2 66630  53.1603 118.1457 0000566  74.3603 203.7416 15.39549912  6083"}}, "geometry": {"type": "Point", "coordinates": [72.60954071637177, -42.65121863968105]}}, {"type": "Feature", "properties": {"norad_id": 66631, "name": "STARLINK-35965", "group": "last-30-days", "lat": -41.57985967265982, "lon": 74.59231740558631, "alt_km": 452.0974885119067, "timestamp": "2025-12-27T15:27:09.828873+00:00", "meta": {"OBJECT_NAME": "STARLINK-35965", "OBJECT_ID": "2025-271Q", "EPOCH": "2025-12-27T06:00:02.000160", "MEAN_MOTION": 15.39562154, "ECCENTRICITY": 8.356e-05, "INCLINATION": 53.1601, "RA_OF_ASC_NODE": 118.1428, "ARG_OF_PERICENTER": 83.1212, "MEAN_ANOMALY": 196.792, "EPHEMERIS_TYPE": 0, "CLASSIFICATION_TYPE": "U", "NORAD_CAT_ID": 66631, "ELEMENT_SET_NO": 999, "REV_AT_EPOCH": 597, "BSTAR": 0.0020815466, "MEAN_MOTION_DOT": 0.00083619, "MEAN_MOTION_DDOT": 0}, "tle": {"line1": "1 66631U 25271Q   25361.25002315  .00083619  00000+0  20815-2 0  9998", "line2": "2 66631  53.1601 118.1428 0000835  83.1212 196.7920 15.39562154  5974"}}, "geometry": {"type": "Point", "coordinates": [74.59231740558631, -41.57985967265982]}}, {"type": "Feature", "properties": {"norad_id": 66632, "name": "STARLINK-35973", "group": "last-30-days", "lat": 34.39779663074304, "lon": 147.68696177901955, "alt_km": 441.0057026027771, "timestamp": "2025-12-27T15:27:09.828883+00:00", "meta": {"OBJECT_NAME": "STARLINK-35973", "OBJECT_ID": "2025-271R", "EPOCH": "2025-12-26T17:26:55.042944", "MEAN_MOTION": 15.39664523, "ECCENTRICITY": 0.00021729, "INCLINATION": 53.1617, "RA_OF_ASC_NODE": 121.127, "ARG_OF_PERICENTER": 35.2508, "MEAN_ANOMALY": 324.864, "EPHEMERIS_TYPE": 0, "CLASSIFICATION_TYPE": "U", "NORAD_CAT_ID": 66632, "ELEMENT_SET_NO": 999, "REV_AT_EPOCH": 632, "BSTAR": 0.0012860701, "MEAN_MOTION_DOT": 0.00051467, "MEAN_MOTION_DDOT": 0}, "tle": {"line1": "1 66632U 25271R   25360.72702596  .00051467  00000+0  12861-2 0  9996", "line2": "2 66632  53.1617 121.1270 0002172  35.2508 324.8640 15.39664523  6329"}}, "geometry": {"type": "Point", "coordinates": [147.68696177901955, 34.39779663074304]}}, {"type": "Feature", "properties": {"norad_id": 66633, "name": "STARLINK-35948", "group": "last-30-days", "lat": 35.60346943380837, "lon": 149.26555012628342, "alt_km": 441.67821339384864, "timestamp": "2025-12-27T15:27:09.828894+00:00", "meta": {"OBJECT_NAME": "STARLINK-35948", "OBJECT_ID": "2025-271S", "EPOCH": "2025-12-26T17:26:26.128320", "MEAN_MOTION": 15.39638494, "ECCENTRICITY": 0.00010808, "INCLINATION": 53.1606, "RA_OF_ASC_NODE": 121.1227, "ARG_OF_PERICENTER": 69.9057, "MEAN_ANOMALY": 290.2065, "EPHEMERIS_TYPE": 0, "CLASSIFICATION_TYPE": "U", "NORAD_CAT_ID": 66633, "ELEMENT_SET_NO": 999, "REV_AT_EPOCH": 636, "BSTAR": 0.0013683003, "MEAN_MOTION_DOT": 0.00054759, "MEAN_MOTION_DDOT": 0}, "tle": {"line1": "1 66633U 25271S   25360.72669130  .00054759  00000+0  13683-2 0  9993", "line2": "2 66633  53.1606 121.1227 0001080  69.9057 290.2065 15.39638494  6369"}}, "geometry": {"type": "Point", "coordinates": [149.26555012628342, 35.60346943380837]}}, {"type": "Feature", "properties": {"norad_id": 66634, "name": "STARLINK-35967", "group": "last-30-days", "lat": 49.81719701245559, "lon": 179.32539347359852, "alt_km": 439.3162380192789, "timestamp": "2025-12-27T15:27:09.828904+00:00", "meta": {"OBJECT_NAME": "STARLINK-35967", "OBJECT_ID": "2025-271T", "EPOCH": "2025-12-26T14:12:47.342304", "MEAN_MOTION": 15.39676406, "ECCENTRICITY": 0.0001064, "INCLINATION": 53.1614, "RA_OF_ASC_NODE": 121.7016, "ARG_OF_PERICENTER": 81.6663, "MEAN_ANOMALY": 278.4463, "EPHEMERIS_TYPE": 0, "CLASSIFICATION_TYPE": "U", "NORAD_CAT_ID": 66634, "ELEMENT_SET_NO": 999, "REV_AT_EPOCH": 630, "BSTAR": 0.0014187, "MEAN_MOTION_DOT": 0.00056878, "MEAN_MOTION_DDOT": 0}, "tle": {"line1": "1 66634U 25271T   25360.59221461  .00056878  00000+0  14187-2 0  9994", "line2": "2 66634  53.1614 121.7016 0001064  81.6663 278.4463 15.39676406  6306"}}, "geometry": {"type": "Point", "coordinates": [179.32539347359852, 49.81719701245559]}}]}